NORAD_CAT_ID,OBJECT_NAME,OBJECT_TYPE,EPOCH,MEAN_MOTION,ECCENTRICITY,INCLINATION,RA_OF_ASC_NODE,ARG_OF_PERICENTER,MEAN_ANOMALY,BSTAR,MEAN_MOTION_DOT,MEAN_MOTION_DDOT,TLE_LINE0,TLE_LINE1,TLE_LINE2,SEMIMAJOR_AXIS,PERIOD,APOGEE,PERIGEE,DECAYED
52617.0,STARLINK-3996,PAYLOAD,2022-08-17 04:00:00,15.07192069,0.0001325,53.2149,346.825,79.1829,102.485,0.00057411,8.463e-05,0.0,0 STARLINK-3996,1 52617U 22052V   22229.16667824  .00008463  00000-0  57411-3 0  9991,2 52617  53.2149 346.8250 0001325  79.1829 102.4850 15.07192069 15031,6922.922,95.542,545.7040000000002,543.87,0.0
52617.0,STARLINK-3996,PAYLOAD,2022-08-17 16:00:00,15.07193031,0.0001441999999999,53.2151,344.5878,71.0746,305.028,0.0011675999999999,0.00017528,0.0,0 STARLINK-3996,1 52617U 22052V   22229.66667824  .00017528  00000-0  11676-2 0  9990,2 52617  53.2151 344.5878 0001442  71.0746 305.0280 15.07193031  1307,6922.919,95.542,545.7819999999998,543.786,0.0
52617.0,STARLINK-3996,PAYLOAD,2022-08-18 06:00:02,15.07208115,0.0001291999999999,53.2152,341.9735,79.2866,223.7431,0.0028563,0.00043467,0.0,0 STARLINK-3996,1 52617U 22052V   22230.25002315  .00043467  00000-0  28563-2 0  9999,2 52617  53.2152 341.9735 0001292  79.2866 223.7431 15.07208115 15193,6922.873000000001,95.541,545.632,543.8430000000002,0.0
52617.0,STARLINK-3996,PAYLOAD,2022-08-18 14:00:01,15.07226621,0.0001326,53.2151,340.4825,70.1867,242.4357,-0.0020141,-0.00030827,0.0,0 STARLINK-3996,1 52617U 22052V   22230.58334491 -.00030827  00000-0 -20141-2 0  9990,2 52617  53.2151 340.4825 0001326  70.1867 242.4357 15.07226621  1300,6922.816,95.54,545.599,543.763,0.0
52617.0,STARLINK-3996,PAYLOAD,2022-08-18 20:00:01,15.07213508,0.000129,53.2149,339.3631,65.8294,164.0254,0.00064572,9.561e-05,0.0,0 STARLINK-3996,1 52617U 22052V   22230.83334491  .00009561  00000-0  64572-3 0  9994,2 52617  53.2149 339.3631 0001290  65.8294 164.0254 15.07213508 15281,6922.856,95.541,545.614,543.828,0.0
52617.0,STARLINK-3996,PAYLOAD,2022-08-18 22:00:00,15.07242275,0.0001262,53.215,338.9894,67.73100000000001,254.5274,-0.0036442,-0.00055381,0.0,0 STARLINK-3996,1 52617U 22052V   22230.91667824 -.00055381  00000-0 -36442-2 0  9999,2 52617  53.2150 338.9894 0001262  67.7310 254.5274 15.07242275  1306,6922.768,95.539,545.507,543.76,0.0
52617.0,STARLINK-3996,PAYLOAD,2022-08-19 12:00:00,15.07192427,0.0001419,53.2152,336.3773,74.3393,174.7953,-0.0016323,-0.00025035,0.0,0 STARLINK-3996,1 52617U 22052V   22231.50001157 -.00025035  00000-0 -16323-2 0  9995,2 52617  53.2152 336.3773 0001419  74.3393 174.7953 15.07192427 15388,6922.920999999999,95.542,545.768,543.804,0.0
52617.0,STARLINK-3996,PAYLOAD,2022-08-19 14:00:01,15.07179835,0.0001469,53.2151,336.0045,72.0168,269.523,-0.00016043,-2.723e-05,0.0,0 STARLINK-3996,1 52617U 22052V   22231.58334491 -.00002723  00000-0 -16043-3 0  9992,2 52617  53.2151 336.0045 0001469  72.0168 269.5230 15.07179835  1302,6922.96,95.543,545.841,543.808,0.0
52617.0,STARLINK-3996,PAYLOAD,2022-08-19 22:00:00,15.07200652,0.000139,53.2148,334.5113,71.9079,279.2235,-0.0018421,-0.0002821,0.0,0 STARLINK-3996,1 52617U 22052V   22231.91667824 -.00028210  00000-0 -18421-2 0  9998,2 52617  53.2148 334.5113 0001390  71.9079 279.2235 15.07200652  1304,6922.896,95.541,545.7230000000002,543.798,0.0
52617.0,STARLINK-3996,PAYLOAD,2022-08-20 04:00:00,15.07164937,0.0001325,53.2148,333.3907,80.348,187.9995,0.0033085999999999,0.00050385,0.0,0 STARLINK-3996,1 52617U 22052V   22232.16667824  .00050385  00000-0  33086-2 0  9996,2 52617  53.2148 333.3907 0001325  80.3480 187.9995 15.07164937 15487,6923.005,95.544,545.7869999999998,543.953,0.0
52617.0,STARLINK-3996,PAYLOAD,2022-08-20 14:00:01,15.07198532,0.0001424,53.2148,331.5267,72.4792,297.8828,3.5598e-05,2.58e-06,0.0,0 STARLINK-3996,1 52617U 22052V   22232.58334491  .00000258  00000-0  35598-4 0  9999,2 52617  53.2148 331.5267 0001424  72.4792 297.8828 15.07198532  1304,6922.901999999999,95.541,545.753,543.781,0.0
52617.0,STARLINK-3996,PAYLOAD,2022-08-20 20:00:01,15.07209667,0.0001351,53.2144,330.4069,70.6247,217.0119,-0.00032096,-5.166e-05,0.0,0 STARLINK-3996,1 52617U 22052V   22232.83335648 -.00005166  00000-0 -32096-3 0  9996,2 52617  53.2144 330.4069 0001351  70.6247 217.0119 15.07209667 15586,6922.868,95.541,545.668,543.798,0.0
52617.0,STARLINK-3996,PAYLOAD,2022-08-20 22:00:00,15.07220578,0.0001341,53.2144,330.0333,73.0193,306.9599,-0.0018821999999999,-0.00028831,0.0,0 STARLINK-3996,1 52617U 22052V   22232.91667824 -.00028831  00000-0 -18822-2 0  9993,2 52617  53.2144 330.0333 0001341  73.0193 306.9599 15.07220578  1301,6922.835,95.54,545.628,543.771,0.0
52617.0,STARLINK-3996,PAYLOAD,2022-08-21 14:00:01,15.07187335,0.0001295,53.2144,327.0488,71.1312,328.1187,-0.00059348,-9.301e-05,0.0,0 STARLINK-3996,1 52617U 22052V   22233.58334491 -.00009301  00000-0 -59348-3 0  9998,2 52617  53.2144 327.0488 0001295  71.1312 328.1187 15.07187335  1300,6922.937,95.542,545.698,543.905,0.0
52617.0,STARLINK-3996,PAYLOAD,2022-08-21 22:00:00,15.0720372,0.0001204,53.2142,325.5552,71.1286,337.7241,-0.0019645,-0.0003006,0.0,0 STARLINK-3996,1 52617U 22052V   22233.91667824 -.00030060  00000-0 -19645-2 0  9995,2 52617  53.2142 325.5552 0001204  71.1286 337.7241 15.07203720  1307,6922.886,95.541,545.585,543.918,0.0
52617.0,STARLINK-3996,PAYLOAD,2022-08-22 04:00:00,15.07199479,0.0001267,53.2167,324.4325,72.688,253.3971,0.00027156,3.852e-05,0.0,0 STARLINK-3996,1 52617U 22052V   22234.16667824  .00003852  00000-0  27156-3 0  9997,2 52617  53.2167 324.4325 0001267  72.6880 253.3971 15.07199479 15791,6922.899,95.541,545.641,543.887,0.0
52617.0,STARLINK-3996,PAYLOAD,2022-08-22 12:00:00,15.07203002,0.0001258,53.2142,322.9438,70.3978,265.2848,-0.00099206,-0.00015351,0.0,0 STARLINK-3996,1 52617U 22052V   22234.50001157 -.00015351  00000-0 -99206-3 0  9990,2 52617  53.2142 322.9438 0001258  70.3978 265.2848 15.07203002  1300,6922.889,95.541,545.624,543.883,0.0
52617.0,STARLINK-3996,PAYLOAD,2022-08-22 20:00:01,15.07214306,0.0001214,53.2141,321.4509,65.6209,279.6781,-0.001443,-0.00022186,0.0,0 STARLINK-3996,1 52617U 22052V   22234.83334491 -.00022186  00000-0 -14430-2 0  9995,2 52617  53.2141 321.4509 0001214  65.6209 279.6781 15.07214306 15891,6922.854,95.54,545.559,543.879,0.0
52617.0,STARLINK-3996,PAYLOAD,2022-08-22 22:00:00,15.07216607,0.0001205999999999,53.2143,321.0772,69.2349,8.4716,-0.0019186,-0.00029377,0.0,0 STARLINK-3996,1 52617U 22052V   22234.91667824 -.00029377  00000-0 -19186-2 0  9995,2 52617  53.2143 321.0772 0001206  69.2349   8.4716 15.07216607  1300,6922.847,95.54,545.547,543.877,0.0
52617.0,STARLINK-3996,PAYLOAD,2022-08-23 12:00:00,15.07214445,0.0001298,53.2144,318.4659,67.0761,297.4866,-0.0010103999999999,-0.00015634,0.0,0 STARLINK-3996,1 52617U 22052V   22235.50001157 -.00015634  00000-0 -10104-2 0  9994,2 52617  53.2144 318.4659 0001298  67.0761 297.4866 15.07214445 15994,6922.854,95.54,545.617,543.82,0.0
52617.0,STARLINK-3996,PAYLOAD,2022-08-23 14:00:01,15.07201072,0.0001317,53.2146,318.093,65.3753,31.6,0.00089639,0.00013386,0.0,0 STARLINK-3996,1 52617U 22052V   22235.58334491  .00013386  00000-0  89639-3 0  9992,2 52617  53.2146 318.0930 0001317  65.3753  31.6000 15.07201072  1308,6922.894,95.541,545.6709999999998,543.8480000000002,0.0
52617.0,STARLINK-3996,PAYLOAD,2022-08-23 22:00:01,15.07226165,0.0001220999999999,53.2147,316.5992,67.1668,39.5,-0.0017999,-0.00027591,0.0,0 STARLINK-3996,1 52617U 22052V   22235.91668981 -.00027591  00000-0 -17999-2 0  9997,2 52617  53.2147 316.5992 0001221  67.1668  39.5000 15.07226165  1306,6922.818,95.54,545.528,543.837,0.0
52617.0,STARLINK-3996,PAYLOAD,2022-08-24 04:00:00,15.07203843,0.0001181,53.2147,315.4789,73.141,310.7007,0.0018472999999999,0.00027947,0.0,0 STARLINK-3996,1 52617U 22052V   22236.16667824  .00027947  00000-0  18473-2 0  9991,2 52617  53.2147 315.4789 0001181  73.1410 310.7007 15.07203843 16096,6922.886,95.541,545.569,543.933,0.0
52617.0,STARLINK-3996,PAYLOAD,2022-08-24 12:00:00,15.07212991,0.0001250999999999,53.2148,313.988,62.9439,330.542,-0.0025551,-0.00038973,0.0,0 STARLINK-3996,1 52617U 22052V   22236.50001157 -.00038973  00000-0 -25551-2 0  9998,2 52617  53.2148 313.9880 0001251  62.9439 330.5420 15.07212991 16146,6922.858,95.541,545.589,543.857,0.0
52617.0,STARLINK-3996,PAYLOAD,2022-08-24 14:00:01,15.07186554,0.0001234,53.215,313.6151,60.31800000000001,65.5821,0.0007475,0.00011107,0.0,0 STARLINK-3996,1 52617U 22052V   22236.58334491  .00011107  00000-0  74750-3 0  9990,2 52617  53.2150 313.6151 0001234  60.3180  65.5821 15.07186554  1300,6922.939,95.542,545.658,543.95,0.0
52617.0,STARLINK-3996,PAYLOAD,2022-08-24 22:00:00,15.07208044,0.0001127,53.215,312.1214,63.5436,71.9698,-0.0015882,-0.00024378,0.0,0 STARLINK-3996,1 52617U 22052V   22236.91667824 -.00024378  00000-0 -15882-2 0  9992,2 52617  53.2150 312.1214 0001127  63.5436  71.9698 15.07208044  1306,6922.873000000001,95.541,545.518,543.9580000000002,0.0
52617.0,STARLINK-3996,PAYLOAD,2022-08-25 04:00:00,15.07186658,0.0001099,53.2155,311.0001,69.8321,342.9026,0.002313,0.00035082,0.0,0 STARLINK-3996,1 52617U 22052V   22237.16667824  .00035082  00000-0  23130-2 0  9997,2 52617  53.2155 311.0001 0001099  69.8321 342.9026 15.07186658 16244,6922.939,95.542,545.564,544.043,0.0
52617.0,STARLINK-3996,PAYLOAD,2022-08-25 14:00:01,15.07187544,0.0001227,53.215,309.1375,57.4851,97.2835,0.001756,0.00026534,0.0,0 STARLINK-3996,1 52617U 22052V   22237.58334491  .00026534  00000-0  17560-2 0  9996,2 52617  53.2150 309.1375 0001227  57.4851  97.2835 15.07187544  1309,6922.936,95.542,545.65,543.951,0.0
52617.0,STARLINK-3996,PAYLOAD,2022-08-25 18:00:00,15.07209877,0.0001182,53.2146,308.3908,55.6785,283.8957,-0.00033072,-5.314e-05,0.0,0 STARLINK-3996,1 52617U 22052V   22237.75001157 -.00005314  00000-0 -33072-3 0  9997,2 52617  53.2146 308.3908 0001182  55.6785 283.8957 15.07209877 16334,6922.868,95.541,545.5509999999998,543.914,0.0
